{
  "norad_id": 64475,
  "name": "STARLINK-34523",
  "history": [
    {
      "epoch": "2026-04-13T06:48:16.087392Z",
      "apogee_km": 475.88269726950693,
      "perigee_km": 474.5401263156373,
      "latitude_deg": 1.3246637836952577e-05,
      "longitude_deg": 12.660760365501588,
      "height_km": 476.0819545792128,
      "semi_major_axis_km": 6853.348411792572,
      "eccentricity": 9.795e-05,
      "inclination_deg": 53.1581,
      "raan_deg": 316.2043,
      "arg_perigee_deg": 87.6333,
      "mean_anomaly_deg": 272.478,
      "mean_motion_rev_day": 15.30201225
    },
    {
      "epoch": "2026-04-14T20:25:32.962080Z",
      "apogee_km": 475.38289563499893,
      "perigee_km": 475.0525639370235,
      "latitude_deg": 2.7371183162299685e-05,
      "longitude_deg": 159.51330728633377,
      "height_km": 475.97458484358515,
      "semi_major_axis_km": 6853.3547297860105,
      "eccentricity": 2.41e-05,
      "inclination_deg": 53.156,
      "raan_deg": 308.9222,
      "arg_perigee_deg": 30.5273,
      "mean_anomaly_deg": 329.5742,
      "mean_motion_rev_day": 15.30199109
    },
    {
      "epoch": "2026-04-15T18:22:17.502240Z",
      "apogee_km": 475.91857167639137,
      "perigee_km": 474.4807416458243,
      "latitude_deg": 3.8004964431195425e-05,
      "longitude_deg": -174.82254514012803,
      "height_km": 475.9562019587313,
      "semi_major_axis_km": 6853.336656661108,
      "eccentricity": 0.0001049,
      "inclination_deg": 53.1599,
      "raan_deg": 304.6732,
      "arg_perigee_deg": 78.6206,
      "mean_anomaly_deg": 281.4913,
      "mean_motion_rev_day": 15.30205162
    },
    {
      "epoch": "2026-04-16T19:27:08.713728Z",
      "apogee_km": 475.4093092211624,
      "perigee_km": 475.0447102558446,
      "latitude_deg": -2.5158997936104797e-05,
      "longitude_deg": 163.08009296573545,
      "height_km": 475.99232759389935,
      "semi_major_axis_km": 6853.364009738503,
      "eccentricity": 2.66e-05,
      "inclination_deg": 53.1612,
      "raan_deg": 299.8193,
      "arg_perigee_deg": 42.5473,
      "mean_anomaly_deg": 317.5548,
      "mean_motion_rev_day": 15.30196001
    },
    {
      "epoch": "2026-04-17T22:06:03.127392Z",
      "apogee_km": 475.9569845132446,
      "perigee_km": 474.4851573339329,
      "latitude_deg": -4.414532020582635e-05,
      "longitude_deg": 117.10204376286129,
      "height_km": 476.0761340308556,
      "semi_major_axis_km": 6853.3580709235885,
      "eccentricity": 0.00010738,
      "inclination_deg": 53.1604,
      "raan_deg": 294.6624,
      "arg_perigee_deg": 86.6245,
      "mean_anomaly_deg": 273.4878,
      "mean_motion_rev_day": 15.3019799
    },
    {
      "epoch": "2026-04-18T18:28:44.398848Z",
      "apogee_km": 476.27021703426726,
      "perigee_km": 474.0319331489418,
      "latitude_deg": -5.6222943676406215e-05,
      "longitude_deg": 166.64897035080068,
      "height_km": 476.17597778419434,
      "semi_major_axis_km": 6853.288075091604,
      "eccentricity": 0.0001633,
      "inclination_deg": 53.1614,
      "raan_deg": 290.7182,
      "arg_perigee_deg": 96.5239,
      "mean_anomaly_deg": 263.5947,
      "mean_motion_rev_day": 15.30221433
    },
    {
      "epoch": "2026-04-19T17:59:32.502336Z",
      "apogee_km": 476.1471386702988,
      "perigee_km": 474.2542467995654,
      "latitude_deg": 8.308881287090946e-06,
      "longitude_deg": 168.43032681567976,
      "height_km": 476.3131976871057,
      "semi_major_axis_km": 6853.337692734932,
      "eccentricity": 0.0001381,
      "inclination_deg": 53.1592,
      "raan_deg": 286.1656,
      "arg_perigee_deg": 103.1068,
      "mean_anomaly_deg": 257.0087,
      "mean_motion_rev_day": 15.30204815
    },
    {
      "epoch": "2026-04-20T11:14:07.829952Z",
      "apogee_km": 476.1646801894185,
      "perigee_km": 474.2667126936667,
      "latitude_deg": -2.7819970727868187e-05,
      "longitude_deg": -94.26295071856215,
      "height_km": 476.39469946308736,
      "semi_major_axis_km": 6853.352696441542,
      "eccentricity": 0.00013847,
      "inclination_deg": 53.1596,
      "raan_deg": 282.8277,
      "arg_perigee_deg": 107.2267,
      "mean_anomaly_deg": 252.8885,
      "mean_motion_rev_day": 15.3019979
    },
    {
      "epoch": "2026-04-21T15:27:05.285088Z",
      "apogee_km": 476.5177119283899,
      "perigee_km": 473.842176993272,
      "latitude_deg": -1.1957075002868283e-05,
      "longitude_deg": -164.12172645333828,
      "height_km": 476.1428329538403,
      "semi_major_axis_km": 6853.31694446083,
      "eccentricity": 0.0001952,
      "inclination_deg": 53.1595,
      "raan_deg": 277.3671,
      "arg_perigee_deg": 92.8204,
      "mean_anomaly_deg": 267.302,
      "mean_motion_rev_day": 15.30211764
    },
    {
      "epoch": "2026-04-22T19:40:02.747136Z",
      "apogee_km": 476.22210996329795,
      "perigee_km": 474.1318491995253,
      "latitude_deg": 3.3874802669356364e-05,
      "longitude_deg": 126.02089119950635,
      "height_km": 475.4045487069577,
      "semi_major_axis_km": 6853.313979581411,
      "eccentricity": 0.0001525,
      "inclination_deg": 53.1596,
      "raan_deg": 271.9079,
      "arg_perigee_deg": 50.0847,
      "mean_anomaly_deg": 310.0288,
      "mean_motion_rev_day": 15.30212757
    }
  ]
}